[{"OBJECT_NAME":"TEVEL2-9","OBJECT_ID":"2025-052AD","EPOCH":"2026-03-09T16:51:18.321696","MEAN_MOTION":15.28633834,"ECCENTRICITY":0.000799,"INCLINATION":97.4057,"RA_OF_ASC_NODE":324.3929,"ARG_OF_PERICENTER":124.2475,"MEAN_ANOMALY":235.9522,"EPHEMERIS_TYPE":0,"CLASSIFICATION_TYPE":"U","NORAD_CAT_ID":63237,"ELEMENT_SET_NO":999,"REV_AT_EPOCH":5481,"BSTAR":0.00067240159,"MEAN_MOTION_DOT":0.00018694,"MEAN_MOTION_DDOT":0},{"OBJECT_NAME":"STARLINK-34302","OBJECT_ID":"2025-176U","EPOCH":"2026-03-09T11:20:59.403264","MEAN_MOTION":15.30202628,"ECCENTRICITY":0.00012644,"INCLINATION":53.1595,"RA_OF_ASC_NODE":153.9872,"ARG_OF_PERICENTER":134.6336,"MEAN_ANOMALY":225.4768,"EPHEMERIS_TYPE":0,"CLASSIFICATION_TYPE":"U","NORAD_CAT_ID":65216,"ELEMENT_SET_NO":999,"REV_AT_EPOCH":3308,"BSTAR":0.00072557664,"MEAN_MOTION_DOT":0.00021193,"MEAN_MOTION_DDOT":0}]
