TEVEL2-9                
1 63237U 25052AD  26068.70229538  .00018694  00000+0  67240-3 0  9992
2 63237  97.4057 324.3929 0007990 124.2475 235.9522 15.28633834 54816
STARLINK-34302          
1 65216U 25176U   26068.47290976  .00021193  00000+0  72558-3 0  9992
2 65216  53.1595 153.9872 0001264 134.6336 225.4768 15.30202628 33081
